IRIDIUM 63              
1 25286U 98021B   25097.54723742  .00000831  00000+0  27680-3 0  9997
2 25286  86.3931 111.7767 0002405  93.6874 266.4598 14.36465548413704
IRIDIUM 69              
1 25319U 98026A   25097.56783357  .00000959  00000+0  29330-3 0  9994
2 25319  86.3947 125.2725 0000579 170.8423 189.2787 14.40874772412899
IRIDIUM 71              
1 25320U 98026B   25097.58418585  .00000823  00000+0  24968-3 0  9998
2 25320  86.3934 119.9685 0001859  30.6621 329.4687 14.41073270413429
IRIDIUM 73              
1 25344U 98032C   25097.47691063  .00001649  00000+0  40700-3 0  9992
2 25344  86.4371  76.8467 0001903  98.9174 261.2247 14.51586820420301
IRIDIUM 82              
1 25467U 98051A   25097.53940444  .00031241  00000+0  99894-3 0  9995
2 25467  86.3698 144.3707 0092149 202.4381 157.2826 15.28158162413151
